METOP-B                 
1 38771U 12049A   26062.74336681  .00000146  00000+0  86609-4 0  9999
2 38771  98.6654 116.2789 0001220 298.9685  61.1370 14.21442356698285
SARAL                   
1 39086U 13009A   26062.80505891  .00000178  00000+0  81265-4 0  9992
2 39086  98.5552 250.6948 0001149 200.5033 159.6105 14.32826141680513
METOP-C                 
1 43689U 18087A   26062.76796664  .00000168  00000+0  96634-4 0  9997
2 43689  98.6778 124.2412 0002170 108.0188 252.1226 14.21494751379859
OTB-3-GAZELLE           
1 54023U 22127A   26062.49853442  .00000094  00000+0  41368-4 0  9991
2 54023  98.3901  55.8399 0013835 143.2080 217.0062 14.42632547179129
EOS-6 (OCEANSAT-3)      
1 54361U 22158A   26062.84873870  .00000472  00000+0  14179-3 0  9995
2 54361  98.3491 162.4776 0000248  31.3354 328.7853 14.46999312172601
KINEIS-1B               
1 60079U 24114A   26062.89024547  .00001624  00000+0  21964-3 0  9996
2 60079  97.9928  87.5475 0003857  85.0295 275.1357 14.80398718 91825
KINEIS-1C               
1 60081U 24114C   26062.85635120  .00001516  00000+0  20550-3 0  9990
2 60081  97.9949  87.3378 0002006 125.1317 235.0083 14.80390381 91792
KINEIS-1D               
1 60082U 24114D   26062.84414418  .00001076  00000+0  16325-3 0  9991
2 60082  97.9973  84.0986 0002192 133.4137 226.7255 14.76101122 91580
KINEIS-1E               
1 60083U 24114E   26062.80573120  .00001516  00000+0  20537-3 0  9993
2 60083  97.9935  87.3690 0002478  94.3888 265.7607 14.80408337 91792
KINEIS-1A               
1 60084U 24114F   26062.83956911  .00001250  00000+0  17047-3 0  9997
2 60084  97.9941  87.5250 0004766 105.6079 254.5659 14.80423881 91800
KINEIS-3C               
1 61220U 24172A   26062.73229398  .00003087  00000+0  49632-3 0  9990
2 61220  98.0304 153.8060 0003535 112.3793 247.7789 14.72280333 77553
KINEIS-3D               
1 61221U 24172B   26062.72565715  .00003084  00000+0  49584-3 0  9999
2 61221  98.0305 153.8108 0002549 116.5636 243.5832 14.72284159 77838
KINEIS-3E               
1 61222U 24172C   26062.77654000  .00003097  00000+0  49804-3 0  9990
2 61222  98.0299 153.8564 0001591 110.8459 249.2918 14.72273246 77847
KINEIS-3A               
1 61223U 24172D   26062.75957694  .00003077  00000+0  49456-3 0  9995
2 61223  98.0294 153.9286 0003150  82.5240 277.6325 14.72300690 77268
KINEIS-3B               
1 61224U 24172E   26062.67455115  .00003042  00000+0  48957-3 0  9995
2 61224  98.0293 153.8781 0003677  75.4290 284.7325 14.72254212 77826
KINEIS-5C               
1 62081U 24219A   26062.85529017  .00001366  00000+0  22369-3 0  9998
2 62081  97.9723 224.4238 0001706  98.0277 262.1124 14.72348329 68250
KINEIS-5D               
1 62082U 24219B   26062.88922838  .00001827  00000+0  29666-3 0  9999
2 62082  97.9646 224.4416 0001163  76.0053 284.1284 14.72325069 68266
