[{"OBJECT_NAME":"METOP-B","OBJECT_ID":"2012-049A","EPOCH":"2026-03-03T17:50:26.892384","MEAN_MOTION":14.21442356,"ECCENTRICITY":0.000122,"INCLINATION":98.6654,"RA_OF_ASC_NODE":116.2789,"ARG_OF_PERICENTER":298.9685,"MEAN_ANOMALY":61.137,"EPHEMERIS_TYPE":0,"CLASSIFICATION_TYPE":"U","NORAD_CAT_ID":38771,"ELEMENT_SET_NO":999,"REV_AT_EPOCH":69828,"BSTAR":8.6609e-5,"MEAN_MOTION_DOT":1.46e-6,"MEAN_MOTION_DDOT":0},{"OBJECT_NAME":"SARAL","OBJECT_ID":"2013-009A","EPOCH":"2026-03-03T19:19:17.089824","MEAN_MOTION":14.32826141,"ECCENTRICITY":0.0001149,"INCLINATION":98.5552,"RA_OF_ASC_NODE":250.6948,"ARG_OF_PERICENTER":200.5033,"MEAN_ANOMALY":159.6105,"EPHEMERIS_TYPE":0,"CLASSIFICATION_TYPE":"U","NORAD_CAT_ID":39086,"ELEMENT_SET_NO":999,"REV_AT_EPOCH":68051,"BSTAR":8.1265e-5,"MEAN_MOTION_DOT":1.78e-6,"MEAN_MOTION_DDOT":0},{"OBJECT_NAME":"METOP-C","OBJECT_ID":"2018-087A","EPOCH":"2026-03-03T18:25:52.317696","MEAN_MOTION":14.21494751,"ECCENTRICITY":0.000217,"INCLINATION":98.6778,"RA_OF_ASC_NODE":124.2412,"ARG_OF_PERICENTER":108.0188,"MEAN_ANOMALY":252.1226,"EPHEMERIS_TYPE":0,"CLASSIFICATION_TYPE":"U","NORAD_CAT_ID":43689,"ELEMENT_SET_NO":999,"REV_AT_EPOCH":37985,"BSTAR":9.6634e-5,"MEAN_MOTION_DOT":1.68e-6,"MEAN_MOTION_DDOT":0},{"OBJECT_NAME":"OTB-3-GAZELLE","OBJECT_ID":"2022-127A","EPOCH":"2026-03-03T11:57:53.373888","MEAN_MOTION":14.42632547,"ECCENTRICITY":0.00138359,"INCLINATION":98.3901,"RA_OF_ASC_NODE":55.8399,"ARG_OF_PERICENTER":143.208,"MEAN_ANOMALY":217.0062,"EPHEMERIS_TYPE":0,"CLASSIFICATION_TYPE":"U","NORAD_CAT_ID":54023,"ELEMENT_SET_NO":999,"REV_AT_EPOCH":17912,"BSTAR":4.1367886e-5,"MEAN_MOTION_DOT":9.4e-7,"MEAN_MOTION_DDOT":0},{"OBJECT_NAME":"EOS-6 (OCEANSAT-3)","OBJECT_ID":"2022-158A","EPOCH":"2026-03-03T20:22:11.023680","MEAN_MOTION":14.46999312,"ECCENTRICITY":2.48e-5,"INCLINATION":98.3491,"RA_OF_ASC_NODE":162.4776,"ARG_OF_PERICENTER":31.3354,"MEAN_ANOMALY":328.7853,"EPHEMERIS_TYPE":0,"CLASSIFICATION_TYPE":"U","NORAD_CAT_ID":54361,"ELEMENT_SET_NO":999,"REV_AT_EPOCH":17260,"BSTAR":0.00014179,"MEAN_MOTION_DOT":4.72e-6,"MEAN_MOTION_DDOT":0},{"OBJECT_NAME":"KINEIS-1B","OBJECT_ID":"2024-114A","EPOCH":"2026-03-03T21:21:57.208608","MEAN_MOTION":14.80398718,"ECCENTRICITY":0.0003857,"INCLINATION":97.9928,"RA_OF_ASC_NODE":87.5475,"ARG_OF_PERICENTER":85.0295,"MEAN_ANOMALY":275.1357,"EPHEMERIS_TYPE":0,"CLASSIFICATION_TYPE":"U","NORAD_CAT_ID":60079,"ELEMENT_SET_NO":999,"REV_AT_EPOCH":9182,"BSTAR":0.00021964,"MEAN_MOTION_DOT":1.624e-5,"MEAN_MOTION_DDOT":0},{"OBJECT_NAME":"KINEIS-1C","OBJECT_ID":"2024-114C","EPOCH":"2026-03-03T20:33:08.743680","MEAN_MOTION":14.80390381,"ECCENTRICITY":0.0002006,"INCLINATION":97.9949,"RA_OF_ASC_NODE":87.3378,"ARG_OF_PERICENTER":125.1317,"MEAN_ANOMALY":235.0083,"EPHEMERIS_TYPE":0,"CLASSIFICATION_TYPE":"U","NORAD_CAT_ID":60081,"ELEMENT_SET_NO":999,"REV_AT_EPOCH":9179,"BSTAR":0.0002055,"MEAN_MOTION_DOT":1.516e-5,"MEAN_MOTION_DDOT":0},{"OBJECT_NAME":"KINEIS-1D","OBJECT_ID":"2024-114D","EPOCH":"2026-03-03T20:15:34.057152","MEAN_MOTION":14.76101122,"ECCENTRICITY":0.0002192,"INCLINATION":97.9973,"RA_OF_ASC_NODE":84.0986,"ARG_OF_PERICENTER":133.4137,"MEAN_ANOMALY":226.7255,"EPHEMERIS_TYPE":0,"CLASSIFICATION_TYPE":"U","NORAD_CAT_ID":60082,"ELEMENT_SET_NO":999,"REV_AT_EPOCH":9158,"BSTAR":0.00016325,"MEAN_MOTION_DOT":1.076e-5,"MEAN_MOTION_DDOT":0},{"OBJECT_NAME":"KINEIS-1E","OBJECT_ID":"2024-114E","EPOCH":"2026-03-03T19:20:15.175680","MEAN_MOTION":14.80408337,"ECCENTRICITY":0.0002478,"INCLINATION":97.9935,"RA_OF_ASC_NODE":87.369,"ARG_OF_PERICENTER":94.3888,"MEAN_ANOMALY":265.7607,"EPHEMERIS_TYPE":0,"CLASSIFICATION_TYPE":"U","NORAD_CAT_ID":60083,"ELEMENT_SET_NO":999,"REV_AT_EPOCH":9179,"BSTAR":0.00020537,"MEAN_MOTION_DOT":1.516e-5,"MEAN_MOTION_DDOT":0},{"OBJECT_NAME":"KINEIS-1A","OBJECT_ID":"2024-114F","EPOCH":"2026-03-03T20:08:58.771104","MEAN_MOTION":14.80423881,"ECCENTRICITY":0.0004766,"INCLINATION":97.9941,"RA_OF_ASC_NODE":87.525,"ARG_OF_PERICENTER":105.6079,"MEAN_ANOMALY":254.5659,"EPHEMERIS_TYPE":0,"CLASSIFICATION_TYPE":"U","NORAD_CAT_ID":60084,"ELEMENT_SET_NO":999,"REV_AT_EPOCH":9180,"BSTAR":0.00017047,"MEAN_MOTION_DOT":1.25e-5,"MEAN_MOTION_DDOT":0},{"OBJECT_NAME":"KINEIS-3C","OBJECT_ID":"2024-172A","EPOCH":"2026-03-03T17:34:30.199872","MEAN_MOTION":14.72280333,"ECCENTRICITY":0.0003535,"INCLINATION":98.0304,"RA_OF_ASC_NODE":153.806,"ARG_OF_PERICENTER":112.3793,"MEAN_ANOMALY":247.7789,"EPHEMERIS_TYPE":0,"CLASSIFICATION_TYPE":"U","NORAD_CAT_ID":61220,"ELEMENT_SET_NO":999,"REV_AT_EPOCH":7755,"BSTAR":0.00049632,"MEAN_MOTION_DOT":3.087e-5,"MEAN_MOTION_DDOT":0},{"OBJECT_NAME":"KINEIS-3D","OBJECT_ID":"2024-172B","EPOCH":"2026-03-03T17:24:56.777760","MEAN_MOTION":14.72284159,"ECCENTRICITY":0.0002549,"INCLINATION":98.0305,"RA_OF_ASC_NODE":153.8108,"ARG_OF_PERICENTER":116.5636,"MEAN_ANOMALY":243.5832,"EPHEMERIS_TYPE":0,"CLASSIFICATION_TYPE":"U","NORAD_CAT_ID":61221,"ELEMENT_SET_NO":999,"REV_AT_EPOCH":7783,"BSTAR":0.00049584,"MEAN_MOTION_DOT":3.084e-5,"MEAN_MOTION_DDOT":0},{"OBJECT_NAME":"KINEIS-3E","OBJECT_ID":"2024-172C","EPOCH":"2026-03-03T18:38:13.056000","MEAN_MOTION":14.72273246,"ECCENTRICITY":0.0001591,"INCLINATION":98.0299,"RA_OF_ASC_NODE":153.8564,"ARG_OF_PERICENTER":110.8459,"MEAN_ANOMALY":249.2918,"EPHEMERIS_TYPE":0,"CLASSIFICATION_TYPE":"U","NORAD_CAT_ID":61222,"ELEMENT_SET_NO":999,"REV_AT_EPOCH":7784,"BSTAR":0.00049804,"MEAN_MOTION_DOT":3.097e-5,"MEAN_MOTION_DDOT":0},{"OBJECT_NAME":"KINEIS-3A","OBJECT_ID":"2024-172D","EPOCH":"2026-03-03T18:13:47.447616","MEAN_MOTION":14.7230069,"ECCENTRICITY":0.000315,"INCLINATION":98.0294,"RA_OF_ASC_NODE":153.9286,"ARG_OF_PERICENTER":82.524,"MEAN_ANOMALY":277.6325,"EPHEMERIS_TYPE":0,"CLASSIFICATION_TYPE":"U","NORAD_CAT_ID":61223,"ELEMENT_SET_NO":999,"REV_AT_EPOCH":7726,"BSTAR":0.00049456,"MEAN_MOTION_DOT":3.077e-5,"MEAN_MOTION_DDOT":0},{"OBJECT_NAME":"KINEIS-3B","OBJECT_ID":"2024-172E","EPOCH":"2026-03-03T16:11:21.219360","MEAN_MOTION":14.72254212,"ECCENTRICITY":0.0003677,"INCLINATION":98.0293,"RA_OF_ASC_NODE":153.8781,"ARG_OF_PERICENTER":75.429,"MEAN_ANOMALY":284.7325,"EPHEMERIS_TYPE":0,"CLASSIFICATION_TYPE":"U","NORAD_CAT_ID":61224,"ELEMENT_SET_NO":999,"REV_AT_EPOCH":7782,"BSTAR":0.00048957,"MEAN_MOTION_DOT":3.042e-5,"MEAN_MOTION_DDOT":0},{"OBJECT_NAME":"KINEIS-5C","OBJECT_ID":"2024-219A","EPOCH":"2026-03-03T20:31:37.070688","MEAN_MOTION":14.72348329,"ECCENTRICITY":0.0001706,"INCLINATION":97.9723,"RA_OF_ASC_NODE":224.4238,"ARG_OF_PERICENTER":98.0277,"MEAN_ANOMALY":262.1124,"EPHEMERIS_TYPE":0,"CLASSIFICATION_TYPE":"U","NORAD_CAT_ID":62081,"ELEMENT_SET_NO":999,"REV_AT_EPOCH":6825,"BSTAR":0.00022369,"MEAN_MOTION_DOT":1.366e-5,"MEAN_MOTION_DDOT":0},{"OBJECT_NAME":"KINEIS-5D","OBJECT_ID":"2024-219B","EPOCH":"2026-03-03T21:20:29.332032","MEAN_MOTION":14.72325069,"ECCENTRICITY":0.0001163,"INCLINATION":97.9646,"RA_OF_ASC_NODE":224.4416,"ARG_OF_PERICENTER":76.0053,"MEAN_ANOMALY":284.1284,"EPHEMERIS_TYPE":0,"CLASSIFICATION_TYPE":"U","NORAD_CAT_ID":62082,"ELEMENT_SET_NO":999,"REV_AT_EPOCH":6826,"BSTAR":0.00029666,"MEAN_MOTION_DOT":1.827e-5,"MEAN_MOTION_DDOT":0}]
